{"type": "FeatureCollection", "features": [{"type": "Feature", "properties": {"norad_id": 26766, "name": "INTELSAT 10 (IS-10)", "group": "intelsat", "lat": -8.105950230453164, "lon": -49.62087823245734, "alt_km": 36095.15684374629, "timestamp": "2025-12-17T07:00:46.559148+00:00", "meta": {"OBJECT_NAME": "INTELSAT 10 (IS-10)", "OBJECT_ID": "2001-019A", "EPOCH": "2025-12-16T15:38:46.684608", "MEAN_MOTION": 0.99077112, "ECCENTRICITY": 0.0007682, "INCLINATION": 8.6387, "RA_OF_ASC_NODE": 61.1181, "ARG_OF_PERICENTER": 227.7006, "MEAN_ANOMALY": 153.3672, "EPHEMERIS_TYPE": 0, "CLASSIFICATION_TYPE": "U", "NORAD_CAT_ID": 26766, "ELEMENT_SET_NO": 999, "REV_AT_EPOCH": 4377, "BSTAR": 0, "MEAN_MOTION_DOT": -2.12e-06, "MEAN_MOTION_DDOT": 0}, "tle": {"line1": "1 26766U 01019A   25350.65192922 -.00000212  00000+0  00000+0 0  9993", "line2": "2 26766   8.6387  61.1181 0007682 227.7006 153.3672  0.99077112 43770"}}, "geometry": {"type": "Point", "coordinates": [-49.62087823245734, -8.105950230453164]}}, {"type": "Feature", "properties": {"norad_id": 26900, "name": "INTELSAT 902 (IS-902)", "group": "intelsat", "lat": 5.2274351934389065, "lon": 141.10475259864756, "alt_km": 35796.0899073844, "timestamp": "2025-12-17T07:00:46.559173+00:00", "meta": {"OBJECT_NAME": "INTELSAT 902 (IS-902)", "OBJECT_ID": "2001-039A", "EPOCH": "2025-12-15T13:09:02.081664", "MEAN_MOTION": 1.0027087, "ECCENTRICITY": 0.00045028, "INCLINATION": 5.6536, "RA_OF_ASC_NODE": 74.0372, "ARG_OF_PERICENTER": 189.6359, "MEAN_ANOMALY": 327.9329, "EPHEMERIS_TYPE": 0, "CLASSIFICATION_TYPE": "U", "NORAD_CAT_ID": 26900, "ELEMENT_SET_NO": 999, "REV_AT_EPOCH": 8885, "BSTAR": 0, "MEAN_MOTION_DOT": -2.65e-06, "MEAN_MOTION_DDOT": 0}, "tle": {"line1": "1 26900U 01039A   25349.54794076 -.00000265  00000+0  00000+0 0  9997", "line2": "2 26900   5.6536  74.0372 0004502 189.6359 327.9329  1.00270870 88858"}}, "geometry": {"type": "Point", "coordinates": [141.10475259864756, 5.2274351934389065]}}, {"type": "Feature", "properties": {"norad_id": 27380, "name": "INTELSAT 904 (IS-904)", "group": "intelsat", "lat": 6.469872121394844, "lon": 159.84607352390373, "alt_km": 35791.218016628045, "timestamp": "2025-12-17T07:00:46.559189+00:00", "meta": {"OBJECT_NAME": "INTELSAT 904 (IS-904)", "OBJECT_ID": "2002-007A", "EPOCH": "2025-12-16T02:56:03.383232", "MEAN_MOTION": 1.00272163, "ECCENTRICITY": 0.00016118, "INCLINATION": 6.4628, "RA_OF_ASC_NODE": 71.3939, "ARG_OF_PERICENTER": 240.6691, "MEAN_ANOMALY": 145.4695, "EPHEMERIS_TYPE": 0, "CLASSIFICATION_TYPE": "U", "NORAD_CAT_ID": 27380, "ELEMENT_SET_NO": 999, "REV_AT_EPOCH": 4993, "BSTAR": 0, "MEAN_MOTION_DOT": -2.07e-06, "MEAN_MOTION_DDOT": 0}, "tle": {"line1": "1 27380U 02007A   25350.12226138 -.00000207  00000+0  00000+0 0  9997", "line2": "2 27380   6.4628  71.3939 0001611 240.6691 145.4695  1.00272163 49938"}}, "geometry": {"type": "Point", "coordinates": [159.84607352390373, 6.469872121394844]}}, {"type": "Feature", "properties": {"norad_id": 27426, "name": "DIRECTV 5 (TEMPO 1)", "group": "intelsat", "lat": 0.30658392131108186, "lon": 81.24300121325342, "alt_km": 35799.29311125302, "timestamp": "2025-12-17T07:00:46.559202+00:00", "meta": {"OBJECT_NAME": "DIRECTV 5 (TEMPO 1)", "OBJECT_ID": "2002-023A", "EPOCH": "2025-12-16T16:15:29.397312", "MEAN_MOTION": 1.00272611, "ECCENTRICITY": 0.000339, "INCLINATION": 4.4118, "RA_OF_ASC_NODE": 77.6074, "ARG_OF_PERICENTER": 203.8071, "MEAN_ANOMALY": 297.9045, "EPHEMERIS_TYPE": 0, "CLASSIFICATION_TYPE": "U", "NORAD_CAT_ID": 27426, "ELEMENT_SET_NO": 999, "REV_AT_EPOCH": 8629, "BSTAR": 0, "MEAN_MOTION_DOT": -3.7e-07, "MEAN_MOTION_DDOT": 0}, "tle": {"line1": "1 27426U 02023A   25350.67742358 -.00000037  00000+0  00000+0 0  9994", "line2": "2 27426   4.4118  77.6074 0003390 203.8071 297.9045  1.00272611 86299"}}, "geometry": {"type": "Point", "coordinates": [81.24300121325342, 0.30658392131108186]}}, {"type": "Feature", "properties": {"norad_id": 27438, "name": "INTELSAT 905 (IS-905)", "group": "intelsat", "lat": -1.8978266975097602, "lon": 54.3238914014507, "alt_km": 35793.95899933496, "timestamp": "2025-12-17T07:00:46.559215+00:00", "meta": {"OBJECT_NAME": "INTELSAT 905 (IS-905)", "OBJECT_ID": "2002-027A", "EPOCH": "2025-12-14T04:33:38.635200", "MEAN_MOTION": 1.00274201, "ECCENTRICITY": 0.00026501, "INCLINATION": 6.2894, "RA_OF_ASC_NODE": 72.0398, "ARG_OF_PERICENTER": 202.1249, "MEAN_ANOMALY": 100.1717, "EPHEMERIS_TYPE": 0, "CLASSIFICATION_TYPE": "U", "NORAD_CAT_ID": 27438, "ELEMENT_SET_NO": 999, "REV_AT_EPOCH": 4950, "BSTAR": 0, "MEAN_MOTION_DOT": 1.08e-06, "MEAN_MOTION_DDOT": 0}, "tle": {"line1": "1 27438U 02027A   25348.19003050  .00000108  00000+0  00000+0 0  9992", "line2": "2 27438   6.2894  72.0398 0002650 202.1249 100.1717  1.00274201 49509"}}, "geometry": {"type": "Point", "coordinates": [54.3238914014507, -1.8978266975097602]}}, {"type": "Feature", "properties": {"norad_id": 27445, "name": "GALAXY 3C (G-3C)", "group": "intelsat", "lat": 0.927902545449205, "lon": 96.45664144804566, "alt_km": 35783.88871809824, "timestamp": "2025-12-17T07:00:46.559228+00:00", "meta": {"OBJECT_NAME": "GALAXY 3C (G-3C)", "OBJECT_ID": "2002-030A", "EPOCH": "2025-12-16T14:36:52.612992", "MEAN_MOTION": 1.00271844, "ECCENTRICITY": 0.00011086, "INCLINATION": 3.2733, "RA_OF_ASC_NODE": 80.4689, "ARG_OF_PERICENTER": 79.4506, "MEAN_ANOMALY": 49.9335, "EPHEMERIS_TYPE": 0, "CLASSIFICATION_TYPE": "U", "NORAD_CAT_ID": 27445, "ELEMENT_SET_NO": 999, "REV_AT_EPOCH": 4466, "BSTAR": 0, "MEAN_MOTION_DOT": -1.31e-06, "MEAN_MOTION_DDOT": 0}, "tle": {"line1": "1 27445U 02030A   25350.60894228 -.00000131  00000+0  00000+0 0  9995", "line2": "2 27445   3.2733  80.4689 0001108  79.4506  49.9335  1.00271844 44668"}}, "geometry": {"type": "Point", "coordinates": [96.45664144804566, 0.927902545449205]}}, {"type": "Feature", "properties": {"norad_id": 27513, "name": "INTELSAT 906 (IS-906)", "group": "intelsat", "lat": -0.05219452346248233, "lon": -104.53337140953231, "alt_km": 35760.391533139, "timestamp": "2025-12-17T07:00:46.559240+00:00", "meta": {"OBJECT_NAME": "INTELSAT 906 (IS-906)", "OBJECT_ID": "2002-041A", "EPOCH": "2025-12-16T19:12:09.472032", "MEAN_MOTION": 1.00272245, "ECCENTRICITY": 0.00062612, "INCLINATION": 5.3396, "RA_OF_ASC_NODE": 75.1832, "ARG_OF_PERICENTER": 195.9652, "MEAN_ANOMALY": 166.7019, "EPHEMERIS_TYPE": 0, "CLASSIFICATION_TYPE": "U", "NORAD_CAT_ID": 27513, "ELEMENT_SET_NO": 999, "REV_AT_EPOCH": 8520, "BSTAR": 0, "MEAN_MOTION_DOT": 3.3e-07, "MEAN_MOTION_DDOT": 0}, "tle": {"line1": "1 27513U 02041A   25350.80010963  .00000033  00000+0  00000+0 0  9991", "line2": "2 27513   5.3396  75.1832 0006261 195.9652 166.7019  1.00272245 85202"}}, "geometry": {"type": "Point", "coordinates": [-104.53337140953231, -0.05219452346248233]}}, {"type": "Feature", "properties": {"norad_id": 27954, "name": "GALAXY 13 (HORIZONS-1)", "group": "intelsat", "lat": -0.6481244493901873, "lon": 41.37943181975156, "alt_km": 35792.420779255066, "timestamp": "2025-12-17T07:00:46.559253+00:00", "meta": {"OBJECT_NAME": "GALAXY 13 (HORIZONS-1)", "OBJECT_ID": "2003-044A", "EPOCH": "2025-12-16T16:04:06.760416", "MEAN_MOTION": 1.00273297, "ECCENTRICITY": 0.000209, "INCLINATION": 0.9462, "RA_OF_ASC_NODE": 86.4194, "ARG_OF_PERICENTER": 175.2776, "MEAN_ANOMALY": 274.8903, "EPHEMERIS_TYPE": 0, "CLASSIFICATION_TYPE": "U", "NORAD_CAT_ID": 27954, "ELEMENT_SET_NO": 999, "REV_AT_EPOCH": 4474, "BSTAR": 0, "MEAN_MOTION_DOT": 1.56e-06, "MEAN_MOTION_DDOT": 0}, "tle": {"line1": "1 27954U 03044A   25350.66952269  .00000156  00000+0  00000+0 0  9998", "line2": "2 27954   0.9462  86.4194 0002090 175.2776 274.8903  1.00273297 44741"}}, "geometry": {"type": "Point", "coordinates": [41.37943181975156, -0.6481244493901873]}}, {"type": "Feature", "properties": {"norad_id": 28358, "name": "INTELSAT 10-02", "group": "intelsat", "lat": 0.005756553733059178, "lon": -169.61579918415356, "alt_km": 35787.47792448084, "timestamp": "2025-12-17T07:00:46.559265+00:00", "meta": {"OBJECT_NAME": "INTELSAT 10-02", "OBJECT_ID": "2004-022A", "EPOCH": "2025-12-16T20:11:59.917344", "MEAN_MOTION": 1.00272395, "ECCENTRICITY": 9.43e-05, "INCLINATION": 0.0232, "RA_OF_ASC_NODE": 70.5928, "ARG_OF_PERICENTER": 233.5516, "MEAN_ANOMALY": 83.6222, "EPHEMERIS_TYPE": 0, "CLASSIFICATION_TYPE": "U", "NORAD_CAT_ID": 28358, "ELEMENT_SET_NO": 999, "REV_AT_EPOCH": 7872, "BSTAR": 0, "MEAN_MOTION_DOT": 1.4e-07, "MEAN_MOTION_DDOT": 0}, "tle": {"line1": "1 28358U 04022A   25350.84166571  .00000014  00000+0  00000+0 0  9990", "line2": "2 28358   0.0232  70.5928 0000943 233.5516  83.6222  1.00272395 78723"}}, "geometry": {"type": "Point", "coordinates": [-169.61579918415356, 0.005756553733059178]}}, {"type": "Feature", "properties": {"norad_id": 28626, "name": "XM-3 (RHYTHM)", "group": "intelsat", "lat": -0.09203226942319852, "lon": -75.98296522343607, "alt_km": 36158.65297263051, "timestamp": "2025-12-17T07:00:46.559277+00:00", "meta": {"OBJECT_NAME": "XM-3 (RHYTHM)", "OBJECT_ID": "2005-008A", "EPOCH": "2025-12-16T22:08:40.777152", "MEAN_MOTION": 0.98950783, "ECCENTRICITY": 0.00017701, "INCLINATION": 0.1853, "RA_OF_ASC_NODE": 81.8397, "ARG_OF_PERICENTER": 277.2143, "MEAN_ANOMALY": 153.3637, "EPHEMERIS_TYPE": 0, "CLASSIFICATION_TYPE": "U", "NORAD_CAT_ID": 28626, "ELEMENT_SET_NO": 999, "REV_AT_EPOCH": 4079, "BSTAR": 0, "MEAN_MOTION_DOT": -1e-07, "MEAN_MOTION_DDOT": 0}, "tle": {"line1": "1 28626U 05008A   25350.92269418 -.00000010  00000+0  00000+0 0  9993", "line2": "2 28626   0.1853  81.8397 0001770 277.2143 153.3637  0.98950783 40797"}}, "geometry": {"type": "Point", "coordinates": [-75.98296522343607, -0.09203226942319852]}}]}